[{"OBJECT_NAME":"ION SCV-004","OBJECT_ID":"2022-002K","EPOCH":"2026-03-09T16:32:03.244416","MEAN_MOTION":15.29369331,"ECCENTRICITY":0.00072157,"INCLINATION":97.2961,"RA_OF_ASC_NODE":128.2294,"ARG_OF_PERICENTER":1.6783,"MEAN_ANOMALY":358.448,"EPHEMERIS_TYPE":0,"CLASSIFICATION_TYPE":"U","NORAD_CAT_ID":50993,"ELEMENT_SET_NO":999,"REV_AT_EPOCH":23008,"BSTAR":0.00023198467,"MEAN_MOTION_DOT":6.538e-5,"MEAN_MOTION_DDOT":0},{"OBJECT_NAME":"STARLINK-34593","OBJECT_ID":"2025-147D","EPOCH":"2026-03-09T21:27:20.531232","MEAN_MOTION":15.30208221,"ECCENTRICITY":0.00010274,"INCLINATION":53.158,"RA_OF_ASC_NODE":241.7582,"ARG_OF_PERICENTER":71.9251,"MEAN_ANOMALY":288.1861,"EPHEMERIS_TYPE":0,"CLASSIFICATION_TYPE":"U","NORAD_CAT_ID":64758,"ELEMENT_SET_NO":999,"REV_AT_EPOCH":3878,"BSTAR":0.0011448274,"MEAN_MOTION_DOT":0.0003371,"MEAN_MOTION_DDOT":0}]
